{"type":"FeatureCollection","features":[{"type":"Feature","properties":{"name":"England"},"geometry":{"type":"MultiPolygon","coordinates":[[[[-2.665354,51.617255],[-2.684043,51.662119],[-2.661616,51.672248],[-2.684353,51.721935],[-2.670556,51.743949],[-2.680994,51.772267],[-2.647043,51.821928],[-2.658877,51.817665],[-2.702595,51.838542],[-2.734996,51.839886],[-2.775666,51.875026],[-2.873592,51.929209],[-2.934726,51.909262],[-2.960848,51.911122],[-3.050843,51.98303],[-3.079885,52.0168],[-3.087559,52.051734],[-3.123086,52.073257],[-3.113216,52.101575],[-3.100814,52.111962],[-3.124662,52.128964],[-3.087016,52.140772],[-3.075699,52.152787],[-3.099418,52.157541],[-3.107661,52.172708],[-3.050998,52.232834],[-3.011904,52.254848],[-2.956378,52.264098],[-2.993275,52.279627],[-2.999476,52.296215],[-2.991079,52.309651],[-2.957334,52.327944],[-2.956662,52.341147],[-3.070557,52.346573],[-3.199309,52.412513],[-3.21507,52.438402],[-3.213107,52.450081],[-3.190317,52.46884],[-3.107738,52.493903],[-3.024178,52.499665],[-2.975498,52.541833],[-3.015238,52.568188],[-3.071126,52.543331],[-3.086551,52.529069],[-3.115128,52.528991],[-3.108359,52.544804],[-3.124042,52.566534],[-3.122983,52.580978],[-3.080608,52.601054],[-3.062935,52.637512],[-3.035753,52.649397],[-3.027898,52.686914],[-3.013274,52.70836],[-2.97369,52.716396],[-2.959944,52.731098],[-2.999941,52.756988],[-3.057509,52.766212],[-3.077559,52.781792],[-3.113061,52.784583],[-3.14032,52.796133],[-3.152232,52.829826],[-3.121898,52.854914],[-3.126859,52.884603],[-3.099703,52.89747],[-3.08035,52.917624],[-2.99281,52.95297],[-2.962967,52.951963],[-2.925941,52.93354],[-2.853154,52.939095],[-2.77949,52.900571],[-2.721509,52.918166],[-2.716755,52.925608],[-2.727297,52.966381],[-2.81835,52.98948],[-2.855118,53.022863],[-2.870957,53.066271],[-2.897364,53.102238],[-2.956662,53.143812],[-2.952399,53.152881],[-2.912557,53.170141],[-2.917983,53.189261],[-3.019759,53.246699],[-3.084543,53.258577],[-3.084543,53.275458],[-3.185211,53.377265],[-3.18635,53.392768],[-3.157297,53.408759],[-3.094228,53.417385],[-3.058258,53.43476],[-3.035553,53.433743],[-3.012196,53.416693],[-2.952952,53.32392],[-2.910553,53.296332],[-2.8815,53.288398],[-2.850575,53.28913],[-2.837554,53.302802],[-2.775502,53.299872],[-2.748118,53.309638],[-2.753651,53.322455],[-2.743153,53.338528],[-2.699778,53.351793],[-2.764394,53.34516],[-2.77538,53.34101],[-2.782379,53.326361],[-2.799794,53.321031],[-2.886464,53.333564],[-2.924957,53.350002],[-2.980824,53.392768],[-3.101918,53.558051],[-3.087636,53.587714],[-3.02184,53.652818],[-2.951731,53.708075],[-2.899037,53.735419],[-2.984853,53.73607],[-3.021474,53.745795],[-3.049184,53.769517],[-3.056386,53.803046],[-3.044911,53.878485],[-3.05663,53.906155],[-3.040679,53.923529],[-3.017568,53.931952],[-2.925689,53.952704],[-2.888539,53.946031],[-2.857981,53.967597],[-2.869252,53.978827],[-2.834462,53.999823],[-2.830068,54.016018],[-2.895497,54.002346],[-2.918202,54.034329],[-2.858876,54.081],[-2.826772,54.088813],[-2.795969,54.12519],[-2.854237,54.194078],[-2.810292,54.2119],[-2.795237,54.229478],[-2.795969,54.248725],[-2.802805,54.248725],[-2.80663,54.23371],[-2.820872,54.221747],[-2.904652,54.187649],[-2.9204,54.162055],[-2.939198,54.155097],[-2.984202,54.153144],[-2.997711,54.159573],[-3.017323,54.19009],[-3.008168,54.200344],[-3.01537,54.2119],[-3.035756,54.225979],[-3.049184,54.222073],[-3.044667,54.208319],[-3.061025,54.161933],[-3.117909,54.108832],[-3.145253,54.100043],[-3.145375,54.063788],[-3.189768,54.097886],[-3.219553,54.100775],[-3.240956,54.112128],[-3.233144,54.159166],[-3.248402,54.173651],[-3.215199,54.179836],[-3.206776,54.20893],[-3.207387,54.263007],[-3.231353,54.247219],[-3.240956,54.222073],[-3.232167,54.202541],[-3.306793,54.191881],[-3.407379,54.277737],[-3.412913,54.293769],[-3.404124,54.318549],[-3.413442,54.342963],[-3.440175,54.351752],[-3.474273,54.3935],[-3.634185,54.512885],[-3.611562,54.529934],[-3.590321,54.564643],[-3.563832,54.642768],[-3.509185,54.721666],[-3.468129,54.735297],[-3.439565,54.761461],[-3.430979,54.780463],[-3.440175,54.797431],[-3.387929,54.883368],[-3.364491,54.899807],[-3.34496,54.902533],[-3.306467,54.886176],[-3.254628,54.899807],[-3.317291,54.920315],[-3.276519,54.943427],[-3.213612,54.954413],[-3.180165,54.940823],[-3.122792,54.932685],[-3.02184,54.954413],[-3.090728,54.954413],[-3.090728,54.961249],[-3.040924,54.97248],[-3.02184,54.968085],[-3.02184,54.975531],[-3.050291,54.98151],[-3.032963,55.015248],[-3.026064,55.050749],[-2.953794,55.041034],[-2.927698,55.068423],[-2.883101,55.083616],[-2.822484,55.135189],[-2.718925,55.167228],[-2.661357,55.212548],[-2.625494,55.227018],[-2.618518,55.242986],[-2.623065,55.266395],[-2.551545,55.314351],[-2.451913,55.36334],[-2.412742,55.364529],[-2.387937,55.35502],[-2.359464,55.362513],[-2.325151,55.398118],[-2.272234,55.418944],[-2.232133,55.425352],[-2.188673,55.44902],[-2.184487,55.465815],[-2.212651,55.490257],[-2.216992,55.508861],[-2.256731,55.549479],[-2.281381,55.59206],[-2.327321,55.625133],[-2.328044,55.638207],[-2.24283,55.649938],[-2.167537,55.719908],[-2.092038,55.757166],[-2.078499,55.790368],[-2.067957,55.795872],[-2.022857,55.805487],[-1.877838,55.694892],[-1.853098,55.659329],[-1.831532,55.650702],[-1.816477,55.63288],[-1.781402,55.645657],[-1.7565,55.633612],[-1.74767,55.619208],[-1.767974,55.619208],[-1.767974,55.612982],[-1.699127,55.612982],[-1.630849,55.58511],[-1.634674,55.564399],[-1.617177,55.550279],[-1.630849,55.537299],[-1.602935,55.523627],[-1.611318,55.508043],[-1.589345,55.495673],[-1.58495,55.48371],[-1.58137,55.416653],[-1.589345,55.376532],[-1.583323,55.354722],[-1.558583,55.328925],[-1.555816,55.311347],[-1.568227,55.279608],[-1.556467,55.255032],[-1.520985,55.229397],[-1.529164,55.216254],[-1.507965,55.194648],[-1.522125,55.167467],[-1.517934,55.157131],[-1.495961,55.134589],[-1.480092,55.085395],[-1.459584,55.078599],[-1.412913,55.000312],[-1.36266,54.964789],[-1.355824,54.904283],[-1.275461,54.74844],[-1.240468,54.721666],[-1.172231,54.701239],[-1.172231,54.693793],[-1.192454,54.689276],[-1.164703,54.652777],[-1.206288,54.632961],[-1.198842,54.621568],[-1.182118,54.619289],[-1.172231,54.626125],[-1.164703,54.611802],[-1.152659,54.613186],[-1.138051,54.646552],[-1.103627,54.624661],[-0.787913,54.560777],[-0.562978,54.477362],[-0.522857,54.447089],[-0.520416,54.420071],[-0.462758,54.388983],[-0.447743,54.373196],[-0.418446,54.324042],[-0.41454,54.297309],[-0.390736,54.283515],[-0.397572,54.269192],[-0.370473,54.247707],[-0.277089,54.21776],[-0.260365,54.176988],[-0.233876,54.160468],[-0.11144,54.131578],[-0.07551,54.112128],[-0.16393,54.083401],[-0.194692,54.062323],[-0.219472,54.022773],[-0.197418,53.994818],[-0.151112,53.899319],[0.133474,53.642646],[0.149262,53.609605],[0.131196,53.573432],[0.10963,53.562893],[0.135997,53.610663],[0.120209,53.618109],[0.034516,53.646064],[-0.045033,53.625556],[-0.092275,53.631049],[-0.130035,53.646064],[-0.225331,53.719916],[-0.260365,53.735419],[-0.305165,53.739691],[-0.431142,53.714301],[-0.544423,53.709459],[-0.579172,53.727973],[-0.637034,53.732001],[-0.726471,53.700629],[-0.692454,53.686998],[-0.67748,53.702826],[-0.619537,53.711859],[-0.529937,53.67768],[-0.486318,53.694485],[-0.30724,53.71426],[-0.279368,53.707099],[-0.188629,53.620429],[-0.144032,53.606635],[-0.095937,53.577135],[-0.04662,53.57038],[9.2e-05,53.535346],[0.095958,53.488349],[0.151866,53.475816],[0.167817,53.464504],[0.175792,53.43769],[0.219493,53.419501],[0.211925,53.412665],[0.22934,53.404771],[0.256114,53.375067],[0.342133,53.226304],[0.356212,53.188544],[0.356619,53.145738],[0.329845,53.086493],[0.282481,53.074856],[0.193044,53.020087],[0.160818,53.008979],[0.082123,52.938666],[0.022146,52.912584],[0.008556,52.898627],[0.010265,52.886461],[0.105642,52.88935],[0.170909,52.862128],[0.246755,52.795722],[0.264496,52.803697],[0.325531,52.803168],[0.384532,52.768378],[0.379242,52.790839],[0.43865,52.840725],[0.456716,52.891995],[0.485688,52.933498],[0.520274,52.955268],[0.569591,52.969306],[0.671886,52.974433],[0.664399,52.981879],[0.684744,52.986396],[0.750499,52.974433],[0.835704,52.974433],[0.968435,52.947496],[1.013927,52.96015],[0.966075,52.967597],[0.966075,52.974433],[1.274669,52.929185],[1.396007,52.891425],[1.644216,52.775824],[1.697032,52.731024],[1.747244,52.62519],[1.740733,52.603909],[1.747569,52.532782],[1.771169,52.485907],[1.754405,52.467353],[1.729259,52.415595],[1.727875,52.396308],[1.683604,52.32453],[1.630544,52.270453],[1.63087,52.199774],[1.582286,52.081488],[1.503673,52.060981],[1.486827,52.049018],[1.472016,52.05622],[1.463878,52.035142],[1.424815,52.001858],[1.332286,51.94009],[1.264415,51.994371],[1.234874,52.000312],[1.185232,52.025092],[1.157888,52.02851],[1.157888,52.021674],[1.214366,51.991441],[1.270763,51.981513],[1.274425,51.960883],[1.20574,51.953437],[1.165294,51.967027],[1.069102,51.953437],[1.09547,51.945746],[1.262055,51.939154],[1.281993,51.946601],[1.278494,51.927924],[1.199555,51.877672],[1.264415,51.864],[1.286632,51.881659],[1.288259,51.860582],[1.276378,51.844794],[1.167817,51.790229],[1.06544,51.775295],[1.037283,51.782172],[0.979828,51.843573],[0.977061,51.824612],[0.962087,51.813788],[0.886974,51.782131],[0.873709,51.747301],[0.835704,51.73371],[0.7671,51.739447],[0.698578,51.720038],[0.749278,51.708482],[0.760753,51.692694],[0.789073,51.71015],[0.853038,51.718899],[0.930024,51.743598],[0.945567,51.73371],[0.938162,51.706366],[0.951834,51.678412],[0.937999,51.664496],[0.934744,51.635891],[0.911469,51.623847],[0.938487,51.624986],[0.951834,51.617011],[0.92449,51.588324],[0.873302,51.559475],[0.771251,51.528266],[0.650564,51.535793],[0.568858,51.508368],[0.552745,51.517971],[0.456065,51.505561],[0.428477,51.467108],[0.384532,51.453111],[0.448416,51.459947],[0.469574,51.480414],[0.534841,51.491685],[0.694835,51.477037],[0.709483,51.470526],[0.723155,51.446723],[0.692393,51.439521],[0.640961,51.444159],[0.609386,51.425116],[0.554535,51.412177],[0.585948,51.391059],[0.712901,51.384223],[0.700369,51.409817],[0.705333,51.419501],[0.72641,51.419013],[0.739268,51.387926],[0.764415,51.364407],[0.977224,51.349189],[1.100922,51.373236],[1.423839,51.392076],[1.448253,51.38288],[1.439138,51.350084],[1.425141,51.332953],[1.377615,51.326239],[1.413097,51.221747],[1.404796,51.183539],[1.384451,51.151679],[1.357188,51.131008],[1.26295,51.103258],[1.21811,51.100979],[1.192068,51.082587],[1.1067,51.076361],[1.066905,51.064399],[1.027599,51.041653],[0.966482,50.982733],[0.979828,50.918158],[0.94516,50.909369],[0.802257,50.939195],[0.762462,50.930894],[0.664399,50.870307],[0.624197,50.85871],[0.365245,50.818996],[0.342296,50.795152],[0.308116,50.780951],[0.271007,50.747382],[0.122081,50.76081],[0.095551,50.775051],[0.034516,50.780951],[-0.173166,50.829006],[-0.206125,50.831041],[-0.233144,50.821926],[-0.269683,50.831285],[-0.397572,50.802069],[-0.568959,50.802069],[-0.732737,50.767279],[-0.758209,50.777086],[-0.773101,50.766018],[-0.766265,50.747138],[-0.770985,50.736884],[-0.789947,50.730048],[-0.904124,50.771877],[-0.911488,50.777818],[-0.905873,50.788031],[-0.863637,50.802069],[-0.863637,50.808254],[-0.904693,50.829332],[-0.928944,50.822821],[-0.919016,50.836168],[-0.939198,50.843248],[-1.020741,50.843655],[-1.056223,50.783026],[-1.082753,50.780951],[-1.103017,50.795478],[-1.069163,50.843655],[-1.08731,50.849799],[-1.164703,50.843655],[-1.123769,50.818793],[-1.124908,50.788723],[-1.151112,50.781399],[-1.185618,50.792426],[-1.19929,50.807929],[-1.255198,50.831936],[-1.301422,50.843655],[-1.338938,50.872707],[-1.46642,50.918158],[-1.46642,50.911933],[-1.425608,50.900092],[-1.323069,50.825751],[-1.31428,50.812161],[-1.317291,50.800238],[-1.418691,50.788398],[-1.404937,50.774726],[-1.487538,50.757717],[-1.524729,50.761054],[-1.561187,50.71898],[-1.602122,50.731757],[-1.693023,50.739936],[-1.771718,50.72012],[-1.857411,50.726955],[-1.896352,50.716295],[-1.940012,50.690823],[-1.94929,50.713324],[-2.021962,50.72012],[-2.038971,50.739936],[-2.082672,50.698961],[-2.035634,50.713324],[-2.002512,50.681301],[-1.952789,50.676581],[-1.945872,50.66885],[-1.952952,50.651842],[-1.932485,50.644436],[-1.967275,50.617092],[-1.965199,50.6022],[-2.065175,50.595526],[-2.157338,50.62051],[-2.342641,50.633775],[-2.377065,50.647528],[-2.398346,50.645575],[-2.435902,50.637519],[-2.460072,50.606513],[-2.465647,50.58515],[-2.456451,50.575507],[-2.431223,50.570258],[-2.4287,50.557563],[-2.453359,50.527655],[-2.459543,50.527655],[-2.460357,50.565497],[-2.48351,50.590399],[-2.692942,50.692816],[-2.864817,50.733791],[-2.962758,50.723293],[-2.998199,50.708238],[-3.059722,50.713324],[-3.125478,50.685289],[-3.166493,50.692816],[-3.259836,50.674547],[-3.295562,50.637519],[-3.368153,50.617092],[-3.420969,50.629462],[-3.44636,50.66828],[-3.464426,50.678534],[-3.467844,50.666978],[-3.455312,50.657904],[-3.433339,50.610256],[-3.48176,50.568549],[-3.505971,50.520819],[-3.487457,50.459418],[-3.532135,50.454779],[-3.549428,50.446519],[-3.556264,50.432115],[-3.549306,50.415595],[-3.487457,50.411566],[-3.487457,50.404771],[-3.49828,50.383694],[-3.520131,50.374823],[-3.526926,50.349799],[-3.538889,50.344428],[-3.570546,50.356391],[-3.577789,50.334052],[-3.621571,50.321926],[-3.631988,50.312323],[-3.65331,50.251044],[-3.645619,50.22602],[-3.660634,50.221015],[-3.718007,50.212388],[-3.774241,50.222968],[-3.788971,50.212388],[-3.884185,50.280463],[-3.961008,50.322252],[-4.032948,50.294908],[-4.054351,50.30036],[-4.070221,50.309231],[-4.064036,50.322252],[-4.108266,50.336615],[-4.118723,50.351874],[-4.10497,50.370673],[-4.15274,50.370673],[-4.171457,50.382799],[-4.191477,50.417629],[-4.159535,50.459418],[-4.179433,50.45307],[-4.200551,50.459418],[-4.212392,50.441474],[-4.234731,50.4383],[-4.216135,50.415717],[-4.228505,50.397366],[-4.289906,50.397366],[-4.27302,50.381903],[-4.216176,50.387763],[-4.193756,50.376899],[-4.228505,50.370673],[-4.228505,50.363837],[-4.200551,50.363837],[-4.207997,50.356391],[-4.180043,50.356391],[-4.197987,50.342231],[-4.193756,50.322252],[-4.214996,50.323147],[-4.235097,50.349555],[-4.252349,50.356391],[-4.337717,50.370673],[-4.383697,50.367499],[-4.495351,50.328437],[-4.65982,50.322252],[-4.673451,50.315416],[-4.687164,50.342719],[-4.694325,50.343451],[-4.763295,50.322089],[-4.755442,50.301744],[-4.779856,50.284329],[-4.776519,50.26081],[-4.80016,50.22956],[-4.849721,50.234565],[-4.904775,50.208441],[-4.947255,50.199368],[-5.002431,50.14411],[-5.014556,50.156562],[-5.020375,50.191962],[-5.033193,50.199368],[-5.052968,50.195787],[-5.051869,50.175523],[-5.064565,50.158393],[-5.043446,50.14411],[-5.080312,50.132717],[-5.085032,50.109931],[-5.125966,50.09634],[-5.07079,50.089504],[-5.056508,50.060614],[-5.098053,50.01439],[-5.146474,50.010565],[-5.176137,49.987942],[-5.191151,49.959133],[-5.245229,49.993109],[-5.252675,50.027777],[-5.304351,50.080268],[-5.474843,50.130439],[-5.52184,50.123725],[-5.540924,50.113471],[-5.534657,50.082343],[-5.563466,50.059638],[-5.667388,50.042873],[-5.705149,50.052314],[-5.715647,50.082709],[-5.698801,50.085395],[-5.694407,50.095771],[-5.709218,50.132636],[-5.684641,50.161526],[-5.510976,50.219468],[-5.489125,50.219794],[-5.437978,50.194322],[-5.417388,50.20246],[-5.387563,50.240302],[-5.351918,50.240302],[-5.314849,50.253607],[-5.200307,50.330756],[-5.149892,50.350165],[-5.14566,50.366889],[-5.153676,50.399482],[-5.050282,50.428697],[-5.038726,50.447903],[-5.025258,50.524237],[-5.015614,50.538031],[-4.947255,50.562445],[-4.933583,50.52025],[-4.920522,50.527655],[-4.844838,50.514065],[-4.855824,50.527411],[-4.906239,50.541978],[-4.921864,50.554877],[-4.915191,50.572496],[-4.920522,50.589179],[-4.79247,50.595201],[-4.749257,50.644436],[-4.751943,50.670071],[-4.728139,50.672309],[-4.657297,50.711127],[-4.637807,50.741156],[-4.57726,50.774726],[-4.55012,50.809556],[-4.554921,50.897773],[-4.543772,50.939195],[-4.522694,50.972724],[-4.530426,50.994696],[-4.526438,51.01496],[-4.437327,51.01496],[-4.395741,51.000678],[-4.337717,50.996649],[-4.302317,51.007514],[-4.207997,51.076361],[-4.231923,51.126695],[-4.255767,51.151516],[-4.214833,51.151516],[-4.209828,51.172838],[-4.228505,51.19245],[-4.152333,51.211615],[-3.969472,51.222398],[-3.913197,51.233385],[-3.840891,51.233385],[-3.769154,51.247707],[-3.63976,51.226386],[-3.559316,51.228095],[-3.434193,51.209784],[-3.384999,51.186225],[-3.270741,51.189399],[-3.16275,51.206732],[-3.057525,51.208157],[-3.029286,51.220404],[-3.02184,51.213568],[-3.035553,51.199286],[-3.02184,51.19245],[-3.004791,51.213121],[-2.999582,51.233222],[-3.008168,51.254543],[-3.01061,51.310981],[-3.02184,51.322821],[-2.992177,51.321926],[-2.987782,51.346666],[-2.959584,51.374254],[-2.97468,51.384223],[-2.952952,51.398505],[-2.92101,51.394436],[-2.798573,51.482611],[-2.71642,51.499579],[-2.696156,51.512641],[-2.607818,51.607367],[-2.580434,51.618638],[-2.556386,51.659247],[-2.464996,51.725898],[-2.388539,51.750434],[-2.380767,51.761908],[-2.383372,51.773261],[-2.398061,51.782131],[-2.402415,51.763577],[-2.4204,51.753119],[-2.482086,51.742865],[-2.522125,51.706366],[-2.581695,51.681708],[-2.665354,51.617255]]],[[[-1.082753,50.713324],[-1.062327,50.685289],[-1.128651,50.666449],[-1.156361,50.650784],[-1.164703,50.640937],[-1.168446,50.603461],[-1.279205,50.582506],[-1.315541,50.589179],[-1.485951,50.669338],[-1.535146,50.669379],[-1.569488,50.658026],[-1.545318,50.686103],[-1.50593,50.707709],[-1.418691,50.733791],[-1.425364,50.72012],[-1.400868,50.721991],[-1.318512,50.772162],[-1.295766,50.773179],[-1.144276,50.733791],[-1.10912,50.732856],[-1.097035,50.726955],[-1.097035,50.713324],[-1.082753,50.713324]]]]}}]}